[{"OBJECT_NAME":"STARLINK-30327","OBJECT_ID":"2023-129K","EPOCH":"2026-03-09T12:25:28.993152","MEAN_MOTION":15.26626807,"ECCENTRICITY":0.00230309,"INCLINATION":42.9974,"RA_OF_ASC_NODE":85.9834,"ARG_OF_PERICENTER":70.832,"MEAN_ANOMALY":289.5022,"EPHEMERIS_TYPE":0,"CLASSIFICATION_TYPE":"U","NORAD_CAT_ID":57707,"ELEMENT_SET_NO":999,"REV_AT_EPOCH":14090,"BSTAR":0.00029313824,"MEAN_MOTION_DOT":7.635e-5,"MEAN_MOTION_DDOT":0},{"OBJECT_NAME":"STARLINK-34517","OBJECT_ID":"2025-137B","EPOCH":"2026-03-09T21:29:22.672320","MEAN_MOTION":15.30211996,"ECCENTRICITY":0.00010947,"INCLINATION":53.1569,"RA_OF_ASC_NODE":334.4805,"ARG_OF_PERICENTER":107.203,"MEAN_ANOMALY":252.9091,"EPHEMERIS_TYPE":0,"CLASSIFICATION_TYPE":"U","NORAD_CAT_ID":64595,"ELEMENT_SET_NO":999,"REV_AT_EPOCH":4076,"BSTAR":0.00087225943,"MEAN_MOTION_DOT":0.00025573,"MEAN_MOTION_DDOT":0}]
